[
    {
        "Altitude(m)": 610399.5654454201,
        "Argument of Periapsis(deg)": 0.0,
        "Eccentricity": 0.0,
        "Inclination(deg)": 60.0,
        "Latitude(deg)": 52.111435935449315,
        "Longitude(deg)": 142.5843890849447,
        "Mean Anomaly(deg)": 65.45450000000001,
        "RAAN(deg)": 195.00000000000003,
        "Satellite Name": "Test1 862",
        "Satellite Number": 862,
        "Semi-Major Axis(m)": 6980739.136638005,
        "Time(s)": 0
    },
    {
        "Altitude(m)": 610481.7160884548,
        "Argument of Periapsis(deg)": 0.00010418945913296404,
        "Eccentricity": 0.0,
        "Inclination(deg)": 60.0,
        "Latitude(deg)": 52.471037283777875,
        "Longitude(deg)": 143.36652817040405,
        "Mean Anomaly(deg)": 66.07460614546181,
        "RAAN(deg)": 194.99957995086024,
        "Satellite Name": "Test1 862",
        "Satellite Number": 862,
        "Semi-Major Axis(m)": 6980739.136638005,
        "Time(s)": 10
    }
]